{"type": "FeatureCollection", "features": [ {"type": "Feature", "properties": {"norad_id": 43565, "name": "GSAT0222 (GALILEO 26)", "group": "gnss", "lat": 49.95909953872933, "lon": 36.60351270019809, "alt_km": 23232.94461272843, "timestamp": "2025-12-22T05:49:03.742527+00:00", "meta": {"OBJECT_NAME": "GSAT0222 (GALILEO 26)", "OBJECT_ID": "2018-060B", "EPOCH": "2025-12-20T23:05:42.344160", "MEAN_MOTION": 1.70475571, "ECCENTRICITY": 0.0006061, "INCLINATION": 57.2294, "RA_OF_ASC_NODE": 346.5987, "ARG_OF_PERICENTER": 266.4874, "MEAN_ANOMALY": 93.4525, "EPHEMERIS_TYPE": 0, "CLASSIFICATION_TYPE": "U", "NORAD_CAT_ID": 43565, "ELEMENT_SET_NO": 999, "REV_AT_EPOCH": 4617, "BSTAR": 0, "MEAN_MOTION_DOT": -6.8e-07, "MEAN_MOTION_DDOT": 0}, "tle": {"line1": "1 43565U 18060B   25354.96229565 -.00000068  00000+0  00000+0 0  9994", "line2": "2 43565  57.2294 346.5987 0006061 266.4874  93.4525  1.70475571 46179"}}, "geometry": {"type": "Point", "coordinates": [36.60351270019809, 49.95909953872933]}}, {"type": "Feature", "properties": {"norad_id": 43566, "name": "GSAT0219 (GALILEO 23)", "group": "gnss", "lat": -52.24242135662001, "lon": -69.72847905273416, "alt_km": 23210.324566932137, "timestamp": "2025-12-22T05:49:03.742561+00:00", "meta": {"OBJECT_NAME": "GSAT0219 (GALILEO 23)", "OBJECT_ID": "2018-060C", "EPOCH": "2025-12-18T20:05:25.027008", "MEAN_MOTION": 1.70475846, "ECCENTRICITY": 0.00058667, "INCLINATION": 57.2292, "RA_OF_ASC_NODE": 346.6575, "ARG_OF_PERICENTER": 289.8664, "MEAN_ANOMALY": 70.0835, "EPHEMERIS_TYPE": 0, "CLASSIFICATION_TYPE": "U", "NORAD_CAT_ID": 43566, "ELEMENT_SET_NO": 999, "REV_AT_EPOCH": 4611, "BSTAR": 0, "MEAN_MOTION_DOT": -7.4e-07, "MEAN_MOTION_DDOT": 0}, "tle": {"line1": "1 43566U 18060C   25352.83709522 -.00000074  00000+0  00000+0 0  9992", "line2": "2 43566  57.2292 346.6575 0005866 289.8664  70.0835  1.70475846 46114"}}, "geometry": {"type": "Point", "coordinates": [-69.72847905273416, -52.24242135662001]}}, {"type": "Feature", "properties": {"norad_id": 43567, "name": "GSAT0220 (GALILEO 24)", "group": "gnss", "lat": 21.412038154435624, "lon": 151.92189855059223, "alt_km": 23231.97752947869, "timestamp": "2025-12-22T05:49:03.742581+00:00", "meta": {"OBJECT_NAME": "GSAT0220 (GALILEO 24)", "OBJECT_ID": "2018-060D", "EPOCH": "2025-12-19T15:28:13.770912", "MEAN_MOTION": 1.70475932, "ECCENTRICITY": 0.000607, "INCLINATION": 57.2288, "RA_OF_ASC_NODE": 346.6359, "ARG_OF_PERICENTER": 288.3471, "MEAN_ANOMALY": 71.5983, "EPHEMERIS_TYPE": 0, "CLASSIFICATION_TYPE": "U", "NORAD_CAT_ID": 43567, "ELEMENT_SET_NO": 999, "REV_AT_EPOCH": 4611, "BSTAR": 0, "MEAN_MOTION_DOT": -7.2e-07, "MEAN_MOTION_DDOT": 0}, "tle": {"line1": "1 43567U 18060D   25353.64460383 -.00000072  00000+0  00000+0 0  9990", "line2": "2 43567  57.2288 346.6359 0006070 288.3471  71.5983  1.70475932 46114"}}, "geometry": {"type": "Point", "coordinates": [151.92189855059223, 21.412038154435624]}}, {"type": "Feature", "properties": {"norad_id": 43581, "name": "BEIDOU-3 M5 (C23)", "group": "gnss", "lat": -32.60912468298796, "lon": 35.96139497953588, "alt_km": 21536.439685234753, "timestamp": "2025-12-22T05:49:03.742603+00:00", "meta": {"OBJECT_NAME": "BEIDOU-3 M5 (C23)", "OBJECT_ID": "2018-062A", "EPOCH": "2025-12-20T20:06:28.321920", "MEAN_MOTION": 1.86228978, "ECCENTRICITY": 0.00019384, "INCLINATION": 54.0899, "RA_OF_ASC_NODE": 188.3678, "ARG_OF_PERICENTER": 1.5281, "MEAN_ANOMALY": 358.5256, "EPHEMERIS_TYPE": 0, "CLASSIFICATION_TYPE": "U", "NORAD_CAT_ID": 43581, "ELEMENT_SET_NO": 999, "REV_AT_EPOCH": 5031, "BSTAR": 0, "MEAN_MOTION_DOT": 9.5e-07, "MEAN_MOTION_DDOT": 0}, "tle": {"line1": "1 43581U 18062A   25354.83782780  .00000095  00000+0  00000+0 0  9992", "line2": "2 43581  54.0899 188.3678 0001938   1.5281 358.5256  1.86228978 50311"}}, "geometry": {"type": "Point", "coordinates": [35.96139497953588, -32.60912468298796]}}, {"type": "Feature", "properties": {"norad_id": 43582, "name": "BEIDOU-3 M6 (C24)", "group": "gnss", "lat": -35.94470046348273, "lon": 156.59577932319513, "alt_km": 21534.306537985467, "timestamp": "2025-12-22T05:49:03.742619+00:00", "meta": {"OBJECT_NAME": "BEIDOU-3 M6 (C24)", "OBJECT_ID": "2018-062B", "EPOCH": "2025-12-20T16:49:14.112192", "MEAN_MOTION": 1.86229946, "ECCENTRICITY": 0.00078563, "INCLINATION": 54.0894, "RA_OF_ASC_NODE": 188.3615, "ARG_OF_PERICENTER": 48.1727, "MEAN_ANOMALY": 311.9483, "EPHEMERIS_TYPE": 0, "CLASSIFICATION_TYPE": "U", "NORAD_CAT_ID": 43582, "ELEMENT_SET_NO": 999, "REV_AT_EPOCH": 5031, "BSTAR": 0, "MEAN_MOTION_DOT": 9.6e-07, "MEAN_MOTION_DDOT": 0}, "tle": {"line1": "1 43582U 18062B   25354.70085778  .00000096  00000+0  00000+0 0  9993", "line2": "2 43582  54.0894 188.3615 0007856  48.1727 311.9483  1.86229946 50316"}}, "geometry": {"type": "Point", "coordinates": [156.59577932319513, -35.94470046348273]}}, {"type": "Feature", "properties": {"norad_id": 43602, "name": "BEIDOU-3 M12 (C26)", "group": "gnss", "lat": -3.93175350047603, "lon": -175.8022673599405, "alt_km": 21511.259317700427, "timestamp": "2025-12-22T05:49:03.742631+00:00", "meta": {"OBJECT_NAME": "BEIDOU-3 M12 (C26)", "OBJECT_ID": "2018-067A", "EPOCH": "2025-12-19T13:33:24.239232", "MEAN_MOTION": 1.86227856, "ECCENTRICITY": 0.00092481, "INCLINATION": 54.1835, "RA_OF_ASC_NODE": 187.1314, "ARG_OF_PERICENTER": 41.3287, "MEAN_ANOMALY": 318.7989, "EPHEMERIS_TYPE": 0, "CLASSIFICATION_TYPE": "U", "NORAD_CAT_ID": 43602, "ELEMENT_SET_NO": 999, "REV_AT_EPOCH": 4977, "BSTAR": 0, "MEAN_MOTION_DOT": 1.01e-06, "MEAN_MOTION_DDOT": 0}, "tle": {"line1": "1 43602U 18067A   25353.56486388  .00000101  00000+0  00000+0 0  9993", "line2": "2 43602  54.1835 187.1314 0009248  41.3287 318.7989  1.86227856 49773"}}, "geometry": {"type": "Point", "coordinates": [-175.8022673599405, -3.93175350047603]}}, {"type": "Feature", "properties": {"norad_id": 43603, "name": "BEIDOU-3 M11 (C25)", "group": "gnss", "lat": -53.84194380612099, "lon": 88.47123711028657, "alt_km": 21544.837663210426, "timestamp": "2025-12-22T05:49:03.742642+00:00", "meta": {"OBJECT_NAME": "BEIDOU-3 M11 (C25)", "OBJECT_ID": "2018-067B", "EPOCH": "2025-12-20T18:33:33.170976", "MEAN_MOTION": 1.86227367, "ECCENTRICITY": 0.0005646, "INCLINATION": 54.1805, "RA_OF_ASC_NODE": 187.0544, "ARG_OF_PERICENTER": 37.4026, "MEAN_ANOMALY": 322.6873, "EPHEMERIS_TYPE": 0, "CLASSIFICATION_TYPE": "U", "NORAD_CAT_ID": 43603, "ELEMENT_SET_NO": 999, "REV_AT_EPOCH": 4982, "BSTAR": 0, "MEAN_MOTION_DOT": 9.5e-07, "MEAN_MOTION_DDOT": 0}, "tle": {"line1": "1 43603U 18067B   25354.77330059  .00000095  00000+0  00000+0 0  9993", "line2": "2 43603  54.1805 187.0544 0005646  37.4026 322.6873  1.86227367 49829"}}, "geometry": {"type": "Point", "coordinates": [88.47123711028657, -53.84194380612099]}}, {"type": "Feature", "properties": {"norad_id": 43622, "name": "BEIDOU-3 M13 (C32)", "group": "gnss", "lat": -49.56918316979068, "lon": 17.51798696944, "alt_km": 21516.339167121252, "timestamp": "2025-12-22T05:49:03.742657+00:00", "meta": {"OBJECT_NAME": "BEIDOU-3 M13 (C32)", "OBJECT_ID": "2018-072A", "EPOCH": "2025-12-21T06:24:05.172192", "MEAN_MOTION": 1.86231118, "ECCENTRICITY": 0.00062116, "INCLINATION": 56.4663, "RA_OF_ASC_NODE": 68.5379, "ARG_OF_PERICENTER": 298.3671, "MEAN_ANOMALY": 61.6165, "EPHEMERIS_TYPE": 0, "CLASSIFICATION_TYPE": "U", "NORAD_CAT_ID": 43622, "ELEMENT_SET_NO": 999, "REV_AT_EPOCH": 4934, "BSTAR": 0, "MEAN_MOTION_DOT": -3.6e-07, "MEAN_MOTION_DDOT": 0}, "tle": {"line1": "1 43622U 18072A   25355.26672653 -.00000036  00000+0  00000+0 0  9990", "line2": "2 43622  56.4663  68.5379 0006211 298.3671  61.6165  1.86231118 49349"}}, "geometry": {"type": "Point", "coordinates": [17.51798696944, -49.56918316979068]}}, {"type": "Feature", "properties": {"norad_id": 43623, "name": "BEIDOU-3 M14 (C33)", "group": "gnss", "lat": 20.10703668577196, "lon": 82.54729706101358, "alt_km": 21520.28701422505, "timestamp": "2025-12-22T05:49:03.742671+00:00", "meta": {"OBJECT_NAME": "BEIDOU-3 M14 (C33)", "OBJECT_ID": "2018-072B", "EPOCH": "2025-12-21T16:03:34.515072", "MEAN_MOTION": 1.86231161, "ECCENTRICITY": 0.0003574, "INCLINATION": 56.4682, "RA_OF_ASC_NODE": 68.5185, "ARG_OF_PERICENTER": 327.1094, "MEAN_ANOMALY": 32.9165, "EPHEMERIS_TYPE": 0, "CLASSIFICATION_TYPE": "U", "NORAD_CAT_ID": 43623, "ELEMENT_SET_NO": 999, "REV_AT_EPOCH": 4934, "BSTAR": 0, "MEAN_MOTION_DOT": -3.3e-07, "MEAN_MOTION_DDOT": 0}, "tle": {"line1": "1 43623U 18072B   25355.66914948 -.00000033  00000+0  00000+0 0  9998", "line2": "2 43623  56.4682  68.5185 0003574 327.1094  32.9165  1.86231161 49344"}}, "geometry": {"type": "Point", "coordinates": [82.54729706101358, 20.10703668577196]}}, {"type": "Feature", "properties": {"norad_id": 43647, "name": "BEIDOU-3 M16 (C35)", "group": "gnss", "lat": -53.38346939675551, "lon": -129.34508607496298, "alt_km": 21537.758127103352, "timestamp": "2025-12-22T05:49:03.742683+00:00", "meta": {"OBJECT_NAME": "BEIDOU-3 M16 (C35)", "OBJECT_ID": "2018-078A", "EPOCH": "2025-12-21T06:57:26.662752", "MEAN_MOTION": 1.86232383, "ECCENTRICITY": 0.00073912, "INCLINATION": 54.254, "RA_OF_ASC_NODE": 306.2225, "ARG_OF_PERICENTER": 20.1589, "MEAN_ANOMALY": 339.8673, "EPHEMERIS_TYPE": 0, "CLASSIFICATION_TYPE": "U", "NORAD_CAT_ID": 43647, "ELEMENT_SET_NO": 999, "REV_AT_EPOCH": 4884, "BSTAR": 0, "MEAN_MOTION_DOT": -6.2e-07, "MEAN_MOTION_DDOT": 0}, "tle": {"line1": "1 43647U 18078A   25355.28989193 -.00000062  00000+0  00000+0 0  9994", "line2": "2 43647  54.2540 306.2225 0007391  20.1589 339.8673  1.86232383 48840"}}, "geometry": {"type": "Point", "coordinates": [-129.34508607496298, -53.38346939675551]}}]}